OBJECT_NAME,OBJECT_ID,EPOCH,MEAN_MOTION,ECCENTRICITY,INCLINATION,RA_OF_ASC_NODE,ARG_OF_PERICENTER,MEAN_ANOMALY,EPHEMERIS_TYPE,CLASSIFICATION_TYPE,NORAD_CAT_ID,ELEMENT_SET_NO,REV_AT_EPOCH,BSTAR,MEAN_MOTION_DOT,MEAN_MOTION_DDOT
ONEWEB-0012,2019-010A,2026-06-28T15:39:54.431712,13.16595229,.00017581,87.9086,226.5083,85.9172,274.2160,0,U,44057,999,35307,.41717047E-4,.29E-6,0
ONEWEB-0010,2019-010B,2026-06-28T16:16:23.184768,13.16595312,.00020454,87.9090,226.4989,106.0415,254.0941,0,U,44058,999,35312,-.70823579E-4,-.14E-6,0
ONEWEB-0008,2019-010C,2026-06-28T13:13:58.816416,13.16594131,.00023011,87.9088,226.5197,92.8912,267.2482,0,U,44059,999,35322,-.83963091E-3,-.308E-5,0
ONEWEB-0007,2019-010D,2026-06-28T17:56:36.407040,13.15548975,.00017295,87.8998,256.9181,103.9822,256.1501,0,U,44060,999,35289,.19874153E-3,.88E-6,0
ONEWEB-0006,2019-010E,2026-06-28T16:12:48.072096,13.15543968,.00020061,87.9009,256.8980,103.4778,256.6576,0,U,44061,999,35293,.38268623E-2,.1454E-4,0
ONEWEB-0011,2019-010F,2026-06-28T22:45:14.263200,13.15548263,.00022248,87.9009,256.8535,102.2374,257.9005,0,U,44062,999,35296,-.10508609E-3,-.27E-6,0
ONEWEB-0013,2020-008A,2026-06-28T15:09:38.188800,13.09457912,.00017506,87.8508,50.5156,49.4579,310.6700,0,U,45131,999,30756,.23139692E-2,.81E-5,0
ONEWEB-0017,2020-008B,2026-06-28T14:32:48.874272,13.10366628,.00018311,87.8816,33.9939,92.5894,267.5443,0,U,45132,999,30944,.14976896E-2,.535E-5,0
ONEWEB-0020,2020-008C,2026-06-28T15:38:44.579040,13.10375808,.00018106,87.8830,33.9834,83.7051,276.4282,0,U,45133,999,30984,.1602447E-2,.572E-5,0
ONEWEB-0021,2020-008D,2026-06-28T19:40:38.635968,13.10372316,.0001698,87.8819,33.9647,87.2765,272.8556,0,U,45134,999,31017,.17010566E-2,.606E-5,0
ONEWEB-0023,2020-008F,2026-06-28T19:56:32.909280,13.10373759,.00019329,87.8822,33.9458,80.4258,279.7087,0,U,45136,999,30960,.92292642E-3,.335E-5,0
ONEWEB-0024,2020-008G,2026-06-28T22:56:17.797056,13.10373255,.00017808,87.8835,33.9142,87.3872,272.7459,0,U,45137,999,30978,.52368395E-3,.195E-5,0
ONEWEB-0025,2020-008H,2026-06-28T22:55:54.405120,13.10374458,.00022831,87.8838,33.9040,86.1127,274.0261,0,U,45138,999,31011,.77968688E-3,.285E-5,0
ONEWEB-0026,2020-008J,2026-06-28T14:28:26.049792,13.11418207,.0001936,87.8879,18.7950,92.3551,267.7799,0,U,45139,999,31260,.59964348E-3,.225E-5,0
ONEWEB-0028,2020-008K,2026-06-28T19:22:37.249248,13.11415246,.00016633,87.8873,18.7623,68.9972,291.1333,0,U,45140,999,31014,-.13238831E-2,-.456E-5,0
ONEWEB-0032,2020-008L,2026-06-28T14:35:25.519200,13.10368499,.00018174,87.8820,33.9952,69.5385,290.5937,0,U,45141,999,30979,-.27881251E-3,-.85E-6,0
ONEWEB-0033,2020-008M,2026-06-28T15:48:30.993984,13.10374402,.0001947,87.8820,33.9915,101.4042,258.7304,0,U,45142,999,30971,.17933743E-2,.639E-5,0
ONEWEB-0035,2020-008N,2026-06-28T16:18:01.354176,13.10373564,.00018418,87.8816,33.9807,88.2096,271.9242,0,U,45143,999,30944,.50198625E-3,.188E-5,0
ONEWEB-0036,2020-008P,2026-06-28T15:45:52.302240,13.10368568,.00018556,87.8839,33.9998,78.3856,281.7479,0,U,45144,999,30986,.17409482E-2,.62E-5,0
ONEWEB-0038,2020-008Q,2026-06-28T22:02:45.689568,13.11416620,.00006888,87.8896,18.7427,156.5519,203.5641,0,U,45145,999,31186,.99235073E-3,.364E-5,0
ONEWEB-0039,2020-008R,2026-06-28T15:53:24.919008,13.10372706,.00016393,87.8821,33.9813,68.7527,291.3776,0,U,45146,999,30966,.19808398E-2,.704E-5,0
ONEWEB-0040,2020-008S,2026-06-28T15:43:36.687072,13.10373005,.00020745,87.8822,33.9934,79.4466,280.6895,0,U,45147,999,30936,.18555019E-2,.66E-5,0
ONEWEB-0043,2020-008U,2026-06-28T15:46:14.151072,13.10336092,.00015065,87.8830,33.9816,66.2572,293.8713,0,U,45149,999,30968,.17028887E-2,.607E-5,0
ONEWEB-0044,2020-008V,2026-06-28T14:37:42.203136,13.10367566,.00019217,87.8827,33.9927,81.3919,278.7427,0,U,45150,999,30997,.27999901E-2,.99E-5,0
ONEWEB-0045,2020-008W,2026-06-28T21:55:14.108736,13.11417147,.00017157,87.8891,18.7257,85.4997,274.6327,0,U,45151,999,31194,.42706097E-3,.164E-5,0
ONEWEB-0047,2020-008X,2026-06-28T16:17:37.646880,13.10373874,.00016959,87.8826,33.9777,91.9100,268.2222,0,U,45152,999,30970,.62679361E-3,.231E-5,0
ONEWEB-0048,2020-008Y,2026-06-28T19:50:25.601280,13.10372510,.00017626,87.8817,33.9683,87.2891,272.8438,0,U,45153,999,30933,.1172438E-2,.422E-5,0
ONEWEB-0049,2020-008Z,2026-06-28T19:55:05.920032,13.10373115,.00021394,87.8816,33.9570,78.2593,281.8775,0,U,45154,999,30955,.80157863E-3,.292E-5,0
ONEWEB-0051,2020-008AA,2026-06-28T14:33:20.327328,13.11418929,.00018354,87.8883,18.7935,87.5715,272.5624,0,U,45155,999,31258,.95859002E-3,.352E-5,0
ONEWEB-0052,2020-008AB,2026-06-28T14:54:59.430816,13.10369619,.00022063,87.8817,33.9861,77.2538,282.8836,0,U,45156,999,30943,.19479714E-2,.693E-5,0
